1 25414U 98046B   16042.48594472  .00000560  00000-0  25766-3 0  9999,2 25414  44.9962  49.3693 0004016 209.4739 150.5881 14.32225352914529
1 25414U 98046B   16043.95077786 +.00000551 +00000-0 +25407-3 0  9998,2 25414 044.9962 042.4882 0004081 216.0880 143.9691 14.32227405914555
1 25414U 98046B   16044.16003957  .00000542  00000-0  25080-3 0  9998,2 25414  44.9963  41.5051 0004089 216.9484 143.1080 14.32227677914769
1 25414U 98046B   16044.50880904 +.00000512 +00000-0 +24000-3 0  9999,2 25414 044.9963 039.8669 0004098 218.4770 141.5784 14.32228034914636
1 25414U 98046B   16045.20634737  .00000579  00000-0  26431-3 0  9991,2 25414  44.9964  36.5901 0004124 221.5226 138.5307 14.32229477914911
1 25414U 98046B   16045.34585519 +.00000620 +00000-0 +27944-3 0  9996,2 25414 044.9963 035.9348 0004124 222.1417 137.9112 14.32229848914758
1 25414U 98046B   16046.32240834  .00000503  00000-0  23648-3 0  9990,2 25414  44.9965  31.3475 0004138 226.4003 133.6499 14.32230665915070
1 25414U 98046B   16046.95019201 +.00000473 +00000-0 +22558-3 0  9996,2 25414 044.9966 028.3984 0004158 229.1661 130.8825 14.32231410914984
1 25414U 98046B   16047.36871416  .00000590  00000-0  26860-3 0  9996,2 25414  44.9966  26.4325 0004174 230.8471 129.2004 14.32232667915222
1 25414U 98046B   16047.92674298 +.00000674 +00000-0 +29934-3 0  9995,2 25414 044.9967 023.8111 0004199 233.2548 126.7913 14.32234068915123
1 25414U 98046B   16048.76378633  .00000634  00000-0  28448-3 0  9997,2 25414  44.9968  19.8792 0004211 236.8069 123.2373 14.32235087915423
1 25414U 98046B   16048.90329375 +.00000557 +00000-0 +25624-3 0  9999,2 25414 044.9968 019.2238 0004216 237.3568 122.6871 14.32234799915264
1 25414U 98046B   16049.81008987  .00000621  00000-0  27986-3 0  9998,2 25414  44.9969  14.9644 0004231 241.1470 118.8951 14.32236419915571
1 25414U 98046B   16049.94959706 +.00000528 +00000-0 +24551-3 0  9997,2 25414 044.9969 014.3090 0004235 241.6874 118.3545 14.32236073915410
1 25414U 98046B   16050.29836460 +.00000595 +00000-0 +27014-3 0  9999,2 25414 044.9969 012.6708 0004240 243.0635 116.9778 14.32236899915467
1 25414U 98046B   16051.13540637  .00000476  00000-0  22641-3 0  9990,2 25414  44.9970   8.7389 0004268 246.4380 113.6017 14.32237361915762
1 25414U 98046B   16051.90269443 +.00000423 +00000-0 +20717-3 0  9992,2 25414 044.9970 005.1346 0004276 249.5515 110.4871 14.32237996915698
1 25414U 98046B   16052.18170812  .00000360  00000-0  18383-3 0  9990,2 25414  44.9970   3.8240 0004276 250.5114 109.5270 14.32238010915918
1 25414U 98046B   16052.87924225 +.00000349 +00000-0 +17973-3 0  9992,2 25414 044.9969 000.5474 0004274 253.3161 106.7216 14.32238745915835
1 25414U 98046B   16053.29776258  .00000317  00000-0  16820-3 0  9995,2 25414  44.9969 358.5814 0004269 254.8926 105.1448 14.32239060916076
1 25414U 98046B   16053.85578960 +.00000259 +00000-0 +14681-3 0  9995,2 25414 044.9970 355.9601 0004266 257.1377 102.8993 14.32239335915978
1 25414U 98046B   16054.76258346  .00000234  00000-0  13757-3 0  9995,2 25414  44.9970 351.7005 0004259 260.8365  99.1999 14.32240005916285
1 25414U 98046B   16054.83233685 +.00000226 +00000-0 +13472-3 0  9997,2 25414 044.9970 351.3729 0004252 261.0749 098.9615 14.32240021916118
1 25414U 98046B   16055.80888364  .00000194  00000-0  12295-3 0  9991,2 25414  44.9970 346.7856 0004234 264.9510  95.0853 14.32240619916435
1 25414U 98046B   16055.87863689 +.00000178 +00000-0 +11703-3 0  9996,2 25414 044.9970 346.4580 0004232 265.1953 094.8409 14.32240618916262
1 25414U 98046B   16056.85518326 +.00000173 +00000-0 +11524-3 0  9996,2 25414 044.9970 341.8707 0004213 269.0870 090.9493 14.32241263916405
1 25414U 98046B   16057.20394972  .00000187  00000-0  12019-3 0  9990,2 25414  44.9970 340.2325 0004196 270.5639  89.4726 14.32241569916630
1 25414U 98046B   16057.90148218 +.00000224 +00000-0 +13381-3 0  9992,2 25414 044.9970 336.9559 0004182 273.2444 086.7923 14.32242286916557
1 25414U 98046B   16058.25024839  .00000256  00000-0  14559-3 0  9996,2 25414  44.9970 335.3176 0004159 274.6593  85.3778 14.32242694916780
1 25414U 98046B   16058.87802729 +.00000267 +00000-0 +14969-3 0  9993,2 25414 044.9970 332.3686 0004150 277.0616 082.9758 14.32243213916696
1 25414U 98046B   16059.71506569  .00000322  00000-0  17003-3 0  9994,2 25414  44.9969 328.4367 0004123 280.3813  79.6568 14.32244092916993
1 25414U 98046B   16060.55209670  .00000279  00000-0  15425-3 0  9998,2 25414  44.9967 324.5049 0004113 283.4011  76.6376 14.32252043917112
1 25414U 98046B   16060.90086047 +.00000389 +00000-0 +19457-3 0  9999,2 25414 044.9966 322.8666 0004100 284.9781 075.0611 14.32252495916983
1 25414U 98046B   16061.87739880  .00000352  00000-0  18079-3 0  9995,2 25414  44.9965 318.2792 0004067 288.5344  71.5059 14.32253544917308
1 25414U 98046B   16061.94715144 +.00000308 +00000-0 +16461-3 0  9994,2 25414 044.9965 317.9515 0004063 288.8151 071.2254 14.32253410917139
1 25414U 98046B   16062.50517292 +.00000363 +00000-0 +18488-3 0  9993,2 25414 044.9964 315.3302 0004055 291.1134 068.9278 14.32254241917214
1 25414U 98046B   16063.13294357  .00000338  00000-0  17558-3 0  9996,2 25414  44.9961 312.3813 0003968 293.5926  66.4503 14.32258839917482
1 25414U 98046B   16063.90021976 +.00000610 +00000-0 +27579-3 0  9993,2 25414 044.9960 308.7771 0003961 297.0602 062.9839 14.32260571917418
1 25414U 98046B   16064.45823857  .00000661  00000-0  29427-3 0  9992,2 25414  44.9960 306.1557 0003960 299.3431  60.7019 14.32261802917678
1 25414U 98046B   16064.80700066 +.00000523 +00000-0 +24385-3 0  9992,2 25414 044.9958 304.5173 0003934 300.9182 059.1277 14.32261685917547
1 25414U 98046B   16065.78353301  .00000544  00000-0  25152-3 0  9992,2 25414  44.9957 299.9297 0003873 304.6219  55.4261 14.32263033917860
1 25414U 98046B   16066.76006457 +.00000541 +00000-0 +25048-3 0  9999,2 25414 044.9956 295.3420 0003825 308.0929 051.9572 14.32264123917823
1 25414U 98046B   16067.03907317  .00000600  00000-0  27206-3 0  9999,2 25414  44.9955 294.0314 0003813 309.3799  50.6709 14.32264846918041
1 25414U 98046B   16067.80634717 +.00000581 +00000-0 +26504-3 0  9993,2 25414 044.9955 290.4269 0003756 312.7629 047.2901 14.32265696917977
1 25414U 98046B   16068.50386835  .00000552  00000-0  25439-3 0  9990,2 25414  44.9954 287.1501 0003716 315.7768  44.2780 14.32266444918257
1 25414U 98046B   16068.78287679 +.00000536 +00000-0 +24859-3 0  9993,2 25414 044.9954 285.8393 0003691 316.8369 043.2187 14.32266702918114
1 25414U 98046B   16069.75940548  .00000501  00000-0  23566-3 0  9998,2 25414  44.9952 281.2517 0003602 320.7050  39.3534 14.32267821918433
1 25414U 98046B   16069.89890947 +.00000485 +00000-0 +22977-3 0  9996,2 25414 044.9952 280.5964 0003590 321.3111 038.7477 14.32267939918273
1 25414U 98046B   16070.66618122 +.00000470 +00000-0 +22439-3 0  9993,2 25414 044.9951 276.9918 0003510 324.1903 035.8707 14.32268933918383
1 25414U 98046B   16071.01494085  .00000459  00000-0  22007-3 0  9991,2 25414  44.9950 275.3534 0003468 325.6076  34.4545 14.32269396918613
1 25414U 98046B   16071.85196344 +.00000534 +00000-0 +24789-3 0  9993,2 25414 044.9950 271.4209 0003367 328.4395 031.6249 14.32271042918556
1 25414U 98046B   16072.82848938  .00000452  00000-0  21769-3 0  9998,2 25414  44.9950 266.8332 0003262 332.1742  27.8929 14.32271941918878
1 25414U 98046B   16072.89824125 +.00000425 +00000-0 +20756-3 0  9992,2 25414 044.9949 266.5055 0003254 332.4972 027.5701 14.32271878918700
1 25414U 98046B   16073.87476640  .00000435  00000-0  21154-3 0  9990,2 25414  44.9949 261.9178 0003164 336.4649  23.6052 14.32273157919024
1 25414U 98046B   16074.85129094 +.00000450 +00000-0 +21686-3 0  9994,2 25414 044.9949 257.3300 0003083 340.5326 019.5402 14.32274311918988
1 25414U 98046B   16074.92104266  .00000451  00000-0  21722-3 0  9998,2 25414  44.9949 257.0024 0003078 340.8495  19.2234 14.32274396919177
1 25414U 98046B   16075.89756616 +.00000490 +00000-0 +23154-3 0  9991,2 25414 044.9948 252.4146 0002982 344.9200 015.1556 14.32275700919130
1 25414U 98046B   16076.45557908  .00000558  00000-0  25652-3 0  9997,2 25414  44.9949 249.7930 0002943 347.3336  12.7435 14.32276727919392
1 25414U 98046B   16076.87408900 +.00000473 +00000-0 +22513-3 0  9999,2 25414 044.9949 247.8269 0002897 349.2659 010.8125 14.32276676919278
1 25414U 98046B   16077.85061102  .00000443  00000-0  21443-3 0  9995,2 25414  44.9949 243.2393 0002809 353.7233   6.3577 14.32277641919596
1 25414U 98046B   16078.89688364  .00000420  00000-0  20600-3 0  9994,2 25414  44.9950 238.3240 0002698 358.4712   1.6125 14.32278800919746
1 25414U 98046B   16079.87340403 +.00000385 +00000-0 +19299-3 0  9994,2 25414 044.9950 233.7365 0002614 003.0711 357.0150 14.32279811919708
1 25414U 98046B   16080.50116683  .00000367  00000-0  18619-3 0  9992,2 25414  44.9951 230.7873 0002554   5.9846 354.1030 14.32280451919979
1 25414U 98046B   16080.57091822 +.00000364 +00000-0 +18512-3 0  9995,2 25414 044.9951 230.4596 0002546 006.3083 353.7795 14.32280522919801
1 25414U 98046B   16081.54743735 +.00000337 +00000-0 +17518-3 0  9995,2 25414 044.9951 225.8720 0002450 011.0959 348.9941 14.32281540920124
1 25414U 98046B   16082.80296119  .00000294  00000-0  15960-3 0  9995,2 25414  44.9951 219.9737 0002330  17.5200 342.5726 14.32282608920300
1 25414U 98046B   16084.47699146  .00000330  00000-0  17289-3 0  9994,2 25414  44.9951 212.1091 0002169  26.1202 333.9753 14.32284250920541
1 25414U 98046B   16085.52325969  .00000282  00000-0  15526-3 0  9998,2 25414  44.9951 207.1937 0002068  31.9005 328.1966 14.32284773920695
